STARLINK-31261          
1 59084U 24041L   25276.59215725 -.00001993  00000+0 -62911-4 0  9991
2 59084  42.9996 118.0582 0001503 282.2175  77.8508 15.27577266 90291
STARLINK-31290          
1 59085U 24041M   25277.85555080 -.00000143  00000+0  43221-5 0  9992
2 59085  43.0011  96.5001 0001273 273.0990  86.9716 15.27596033 90740
STARLINK-31279          
1 59086U 24041N   25277.84862640  .00003074  00000+0  12114-3 0  9995
2 59086  43.0002 111.1479 0000972 287.0107  73.0638 15.27585648 90485
STARLINK-31266          
1 59087U 24041P   25277.61392312  .00000881  00000+0  41540-4 0  9994
2 59087  43.0012 111.9683 0001308 257.4950 102.5756 15.27584022 90454
STARLINK-31313          
1 59088U 24041Q   25277.81265139  .00003286  00000+0  12887-3 0  9996
2 59088  42.9992 110.8803 0001422 283.8891  76.1803 15.27584784 90438
STARLINK-31307          
1 59089U 24041R   25277.80879638  .00001048  00000+0  47592-4 0  9997
2 59089  43.0010 110.8575 0001763 271.0335  89.0315 15.27582536 90487
STARLINK-31316          
1 59090U 24041S   25277.81222547  .00002021  00000+0  82931-4 0  9999
2 59090  43.0020  64.1932 0001796 267.1049  92.9597 15.27582223 90918
STARLINK-31310          
1 59092U 24041U   25277.59351035  .00002551  00000+0  10217-3 0  9996
2 59092  42.9998 112.6793 0000401 312.0952  47.9866 15.27583732 90398
STARLINK-31343          
1 59093U 24041V   25277.77682324  .00008710  00000+0  32561-3 0  9994
2 59093  43.0006 111.4714 0001564 265.3727  94.6946 15.27584388 90477
STARLINK-31295          
1 59095U 24041X   25277.82035950  .00003565  00000+0  13896-3 0  9992
2 59095  42.9998 110.9364 0000966 279.1921  80.8821 15.27586624 90436
STARLINK-31291          
1 59096U 24041Y   25277.81780558 -.00003007  00000+0 -99840-4 0  9990
2 59096  42.9989 110.9130 0000686 206.8628 153.2188 15.27566469 90434
STARLINK-31312          
1 59152U 24044A   25277.82776197  .00019054  00000+0  70006-3 0  9990
2 59152  43.0025 216.5543 0000549 274.7439  85.3350 15.27582979 90343
STARLINK-31308          
1 59153U 24044B   25277.85170336  .00005445  00000+0  20723-3 0  9997
2 59153  43.0004 220.2830 0000962 241.0206 119.0549 15.27578898 90317
STARLINK-31270          
1 59154U 24044C   25277.67138934 -.00000742  00000+0 -17482-4 0  9992
2 59154  42.9975 268.2181 0000059 139.8859 220.1997 15.27569666 89737
STARLINK-31341          
1 59155U 24044D   25277.70891867 -.00001514  00000+0 -48075-4 0  9998
2 59155  43.0037 271.0893 0000603 293.7278  66.3510 15.25909490 89676
STARLINK-31338          
1 59156U 24044E   25277.70664741  .00004823  00000+0  19409-3 0  9990
2 59156  42.9998 271.0696 0001004 240.7717 119.3034 15.25908928 89673
STARLINK-31334          
1 59157U 24044F   25277.70438785  .00001158  00000+0  54106-4 0  9990
2 59157  43.0019 271.0498 0000686 252.6685 107.4091 15.25912476 89675
