[{"OBJECT_NAME":"STARLINK-31261","OBJECT_ID":"2024-041L","EPOCH":"2025-10-03T14:12:42.386400","MEAN_MOTION":15.27577266,"ECCENTRICITY":0.00015033,"INCLINATION":42.9996,"RA_OF_ASC_NODE":118.0582,"ARG_OF_PERICENTER":282.2175,"MEAN_ANOMALY":77.8508,"EPHEMERIS_TYPE":0,"CLASSIFICATION_TYPE":"U","NORAD_CAT_ID":59084,"ELEMENT_SET_NO":999,"REV_AT_EPOCH":9029,"BSTAR":-6.2911108e-5,"MEAN_MOTION_DOT":-1.993e-5,"MEAN_MOTION_DDOT":0},{"OBJECT_NAME":"STARLINK-31290","OBJECT_ID":"2024-041M","EPOCH":"2025-10-04T20:31:59.589120","MEAN_MOTION":15.27596033,"ECCENTRICITY":0.0001273,"INCLINATION":43.0011,"RA_OF_ASC_NODE":96.5001,"ARG_OF_PERICENTER":273.099,"MEAN_ANOMALY":86.9716,"EPHEMERIS_TYPE":0,"CLASSIFICATION_TYPE":"U","NORAD_CAT_ID":59085,"ELEMENT_SET_NO":999,"REV_AT_EPOCH":9074,"BSTAR":4.3221e-6,"MEAN_MOTION_DOT":-1.43e-6,"MEAN_MOTION_DDOT":0},{"OBJECT_NAME":"STARLINK-31279","OBJECT_ID":"2024-041N","EPOCH":"2025-10-04T20:22:01.320960","MEAN_MOTION":15.27585648,"ECCENTRICITY":9.72e-5,"INCLINATION":43.0002,"RA_OF_ASC_NODE":111.1479,"ARG_OF_PERICENTER":287.0107,"MEAN_ANOMALY":73.0638,"EPHEMERIS_TYPE":0,"CLASSIFICATION_TYPE":"U","NORAD_CAT_ID":59086,"ELEMENT_SET_NO":999,"REV_AT_EPOCH":9048,"BSTAR":0.00012114,"MEAN_MOTION_DOT":3.074e-5,"MEAN_MOTION_DDOT":0},{"OBJECT_NAME":"STARLINK-31266","OBJECT_ID":"2024-041P","EPOCH":"2025-10-04T14:44:02.957568","MEAN_MOTION":15.27584022,"ECCENTRICITY":0.0001308,"INCLINATION":43.0012,"RA_OF_ASC_NODE":111.9683,"ARG_OF_PERICENTER":257.495,"MEAN_ANOMALY":102.5756,"EPHEMERIS_TYPE":0,"CLASSIFICATION_TYPE":"U","NORAD_CAT_ID":59087,"ELEMENT_SET_NO":999,"REV_AT_EPOCH":9045,"BSTAR":4.154e-5,"MEAN_MOTION_DOT":8.81e-6,"MEAN_MOTION_DDOT":0},{"OBJECT_NAME":"STARLINK-31313","OBJECT_ID":"2024-041Q","EPOCH":"2025-10-04T19:30:13.080096","MEAN_MOTION":15.27584784,"ECCENTRICITY":0.0001422,"INCLINATION":42.9992,"RA_OF_ASC_NODE":110.8803,"ARG_OF_PERICENTER":283.8891,"MEAN_ANOMALY":76.1803,"EPHEMERIS_TYPE":0,"CLASSIFICATION_TYPE":"U","NORAD_CAT_ID":59088,"ELEMENT_SET_NO":999,"REV_AT_EPOCH":9043,"BSTAR":0.00012887,"MEAN_MOTION_DOT":3.286e-5,"MEAN_MOTION_DDOT":0},{"OBJECT_NAME":"STARLINK-31307","OBJECT_ID":"2024-041R","EPOCH":"2025-10-04T19:24:40.007232","MEAN_MOTION":15.27582536,"ECCENTRICITY":0.0001763,"INCLINATION":43.001,"RA_OF_ASC_NODE":110.8575,"ARG_OF_PERICENTER":271.0335,"MEAN_ANOMALY":89.0315,"EPHEMERIS_TYPE":0,"CLASSIFICATION_TYPE":"U","NORAD_CAT_ID":59089,"ELEMENT_SET_NO":999,"REV_AT_EPOCH":9048,"BSTAR":4.7592e-5,"MEAN_MOTION_DOT":1.048e-5,"MEAN_MOTION_DDOT":0},{"OBJECT_NAME":"STARLINK-31316","OBJECT_ID":"2024-041S","EPOCH":"2025-10-04T19:29:36.280608","MEAN_MOTION":15.27582223,"ECCENTRICITY":0.0001796,"INCLINATION":43.002,"RA_OF_ASC_NODE":64.1932,"ARG_OF_PERICENTER":267.1049,"MEAN_ANOMALY":92.9597,"EPHEMERIS_TYPE":0,"CLASSIFICATION_TYPE":"U","NORAD_CAT_ID":59090,"ELEMENT_SET_NO":999,"REV_AT_EPOCH":9091,"BSTAR":8.2931e-5,"MEAN_MOTION_DOT":2.021e-5,"MEAN_MOTION_DDOT":0},{"OBJECT_NAME":"STARLINK-31310","OBJECT_ID":"2024-041U","EPOCH":"2025-10-04T14:14:39.294240","MEAN_MOTION":15.27583732,"ECCENTRICITY":4.01e-5,"INCLINATION":42.9998,"RA_OF_ASC_NODE":112.6793,"ARG_OF_PERICENTER":312.0952,"MEAN_ANOMALY":47.9866,"EPHEMERIS_TYPE":0,"CLASSIFICATION_TYPE":"U","NORAD_CAT_ID":59092,"ELEMENT_SET_NO":999,"REV_AT_EPOCH":9039,"BSTAR":0.00010217,"MEAN_MOTION_DOT":2.551e-5,"MEAN_MOTION_DDOT":0},{"OBJECT_NAME":"STARLINK-31343","OBJECT_ID":"2024-041V","EPOCH":"2025-10-04T18:38:37.527936","MEAN_MOTION":15.27584388,"ECCENTRICITY":0.0001564,"INCLINATION":43.0006,"RA_OF_ASC_NODE":111.4714,"ARG_OF_PERICENTER":265.3727,"MEAN_ANOMALY":94.6946,"EPHEMERIS_TYPE":0,"CLASSIFICATION_TYPE":"U","NORAD_CAT_ID":59093,"ELEMENT_SET_NO":999,"REV_AT_EPOCH":9047,"BSTAR":0.00032561,"MEAN_MOTION_DOT":8.71e-5,"MEAN_MOTION_DDOT":0},{"OBJECT_NAME":"STARLINK-31295","OBJECT_ID":"2024-041X","EPOCH":"2025-10-04T19:41:19.060800","MEAN_MOTION":15.27586624,"ECCENTRICITY":9.66e-5,"INCLINATION":42.9998,"RA_OF_ASC_NODE":110.9364,"ARG_OF_PERICENTER":279.1921,"MEAN_ANOMALY":80.8821,"EPHEMERIS_TYPE":0,"CLASSIFICATION_TYPE":"U","NORAD_CAT_ID":59095,"ELEMENT_SET_NO":999,"REV_AT_EPOCH":9043,"BSTAR":0.00013896,"MEAN_MOTION_DOT":3.565e-5,"MEAN_MOTION_DDOT":0},{"OBJECT_NAME":"STARLINK-31291","OBJECT_ID":"2024-041Y","EPOCH":"2025-10-04T19:37:38.402112","MEAN_MOTION":15.27566469,"ECCENTRICITY":6.86e-5,"INCLINATION":42.9989,"RA_OF_ASC_NODE":110.913,"ARG_OF_PERICENTER":206.8628,"MEAN_ANOMALY":153.2188,"EPHEMERIS_TYPE":0,"CLASSIFICATION_TYPE":"U","NORAD_CAT_ID":59096,"ELEMENT_SET_NO":999,"REV_AT_EPOCH":9043,"BSTAR":-9.984e-5,"MEAN_MOTION_DOT":-3.007e-5,"MEAN_MOTION_DDOT":0},{"OBJECT_NAME":"STARLINK-31312","OBJECT_ID":"2024-044A","EPOCH":"2025-10-04T19:51:58.634208","MEAN_MOTION":15.27582979,"ECCENTRICITY":5.49e-5,"INCLINATION":43.0025,"RA_OF_ASC_NODE":216.5543,"ARG_OF_PERICENTER":274.7439,"MEAN_ANOMALY":85.335,"EPHEMERIS_TYPE":0,"CLASSIFICATION_TYPE":"U","NORAD_CAT_ID":59152,"ELEMENT_SET_NO":999,"REV_AT_EPOCH":9034,"BSTAR":0.00070006,"MEAN_MOTION_DOT":0.00019054,"MEAN_MOTION_DDOT":0},{"OBJECT_NAME":"STARLINK-31308","OBJECT_ID":"2024-044B","EPOCH":"2025-10-04T20:26:27.170304","MEAN_MOTION":15.27578898,"ECCENTRICITY":9.62e-5,"INCLINATION":43.0004,"RA_OF_ASC_NODE":220.283,"ARG_OF_PERICENTER":241.0206,"MEAN_ANOMALY":119.0549,"EPHEMERIS_TYPE":0,"CLASSIFICATION_TYPE":"U","NORAD_CAT_ID":59153,"ELEMENT_SET_NO":999,"REV_AT_EPOCH":9031,"BSTAR":0.00020723,"MEAN_MOTION_DOT":5.445e-5,"MEAN_MOTION_DDOT":0},{"OBJECT_NAME":"STARLINK-31270","OBJECT_ID":"2024-044C","EPOCH":"2025-10-04T16:06:48.038976","MEAN_MOTION":15.27569666,"ECCENTRICITY":5.9e-6,"INCLINATION":42.9975,"RA_OF_ASC_NODE":268.2181,"ARG_OF_PERICENTER":139.8859,"MEAN_ANOMALY":220.1997,"EPHEMERIS_TYPE":0,"CLASSIFICATION_TYPE":"U","NORAD_CAT_ID":59154,"ELEMENT_SET_NO":999,"REV_AT_EPOCH":8973,"BSTAR":-1.7482e-5,"MEAN_MOTION_DOT":-7.42e-6,"MEAN_MOTION_DDOT":0},{"OBJECT_NAME":"STARLINK-31341","OBJECT_ID":"2024-044D","EPOCH":"2025-10-04T17:00:50.573088","MEAN_MOTION":15.2590949,"ECCENTRICITY":6.03e-5,"INCLINATION":43.0037,"RA_OF_ASC_NODE":271.0893,"ARG_OF_PERICENTER":293.7278,"MEAN_ANOMALY":66.351,"EPHEMERIS_TYPE":0,"CLASSIFICATION_TYPE":"U","NORAD_CAT_ID":59155,"ELEMENT_SET_NO":999,"REV_AT_EPOCH":8967,"BSTAR":-4.8075e-5,"MEAN_MOTION_DOT":-1.514e-5,"MEAN_MOTION_DDOT":0},{"OBJECT_NAME":"STARLINK-31338","OBJECT_ID":"2024-044E","EPOCH":"2025-10-04T16:57:34.336224","MEAN_MOTION":15.25908928,"ECCENTRICITY":0.0001004,"INCLINATION":42.9998,"RA_OF_ASC_NODE":271.0696,"ARG_OF_PERICENTER":240.7717,"MEAN_ANOMALY":119.3034,"EPHEMERIS_TYPE":0,"CLASSIFICATION_TYPE":"U","NORAD_CAT_ID":59156,"ELEMENT_SET_NO":999,"REV_AT_EPOCH":8967,"BSTAR":0.00019409,"MEAN_MOTION_DOT":4.823e-5,"MEAN_MOTION_DDOT":0},{"OBJECT_NAME":"STARLINK-31334","OBJECT_ID":"2024-044F","EPOCH":"2025-10-04T16:54:19.110240","MEAN_MOTION":15.25912476,"ECCENTRICITY":6.86e-5,"INCLINATION":43.0019,"RA_OF_ASC_NODE":271.0498,"ARG_OF_PERICENTER":252.6685,"MEAN_ANOMALY":107.4091,"EPHEMERIS_TYPE":0,"CLASSIFICATION_TYPE":"U","NORAD_CAT_ID":59157,"ELEMENT_SET_NO":999,"REV_AT_EPOCH":8967,"BSTAR":5.4106e-5,"MEAN_MOTION_DOT":1.158e-5,"MEAN_MOTION_DDOT":0}]
